0 SL-12 DEB
1 41683U 07052Q   18305.41878327  .00004250  00000-0  33423-2 0  9991
2 41683  63.9198 170.0160 5744450  35.5226 351.8446  4.33077529 66167
0 SL-12 DEB
1 41683U 07052Q   18304.72605987 +.00005467 +00000-0 +43222-2 0  9993
2 41683 063.9209 170.2989 5743815 035.5503 351.8352 04.33070677066133
0 SL-12 DEB
1 41686U 07052T   18304.76770074 +.00004228 +00000-0 +39890-2 0  9990
2 41686 064.2441 187.6018 5770901 022.8012 354.9847 04.27688726065262
0 SL-12 DEB
1 41688U 07052V   18304.82225032 +.00004689 +00000-0 +41870-2 0  9990
2 41688 064.2279 186.1860 5770557 023.1585 354.9027 04.28188277065164
0 SL-12 DEB
1 41688U 07052V   18305.75641016  .00005102  00000-0  45373-2 0  9990
2 41688  64.2261 185.8263 5770878  23.1427 354.9068  4.28198614 65205
0 SL-12 DEB
1 41695U 10007M   18305.53229062  .00003697  00000-0  26834-1 0  9998
2 41695  64.7208  91.0579 5454057  61.8258 342.3501  4.49000600 68347
0 SL-12 DEB
1 41695U 10007M   18304.86419887  .00004923  00000-0  35824-1 0  9991
2 41695  64.7174  91.3105 5454034  61.8914 342.4573  4.49000912 68314
0 SL-12 DEB
1 41696U 10007N   18305.56713671 -.00000218  00000-0 -10965-1 0  9992
2 41696  64.6809 146.8272 5550838  78.4274 336.2436  4.06633462 63041
0 SL-12 DEB
1 41698U 10007Q   18304.73244364  .00000086  00000-0  43040-3 0  9993
2 41698  65.0440  96.4736 5541639  51.4176 346.4338  4.34562929 67010
0 SL-12 DEB
1 41698U 10007Q   18304.73244364 +.00000086 +00000-0 +43040-3 0  9993
2 41698 065.0440 096.4736 5541639 051.4176 346.4338 04.34562929067010
0 SL-12 DEB
1 41699U 10007R   18304.66554981 +.00000047 +00000-0 +68293-4 0  9990
2 41699 065.0198 104.8657 5541390 053.3578 345.8241 04.31355027067032
0 SL-12 DEB
1 41699U 10007R   18305.82470029  .00000084  00000-0  41073-3 0  9996
2 41699  65.0192 104.4527 5541674  53.3077 345.8430  4.31355315 67082
0 SL-12 DEB
1 41700U 10007S   18304.67083578 +.00000232 +00000-0 +57401-2 0  9996
2 41700 065.0368 158.9809 5569254 055.3657 345.3782 04.10645129063811
0 SL-12 DEB
1 41701U 10007T   18304.76740228 -.00000465 +00000-0 -14791-1 0  9993
2 41701 065.4195 171.2126 5528687 044.7130 348.5281 04.13603450063900
0 SL-12 DEB
1 41701U 10007T   18305.73452394  .00000925  00000-0  28553-1 0  9995
2 41701  65.4150 170.9088 5530448  44.6806 348.5779  4.13610864 63944
0 SL-12 DEB
1 41702U 10007U   18305.66350318  .00004481  00000-0  10535-1 0  9993
2 41702  65.1517  83.9816 5208825  45.5060 346.8064  5.00881821 64730
0 SL-12 DEB
1 41702U 10007U   18304.66526892 +.00005101 +00000-0 +11674-1 0  9999
2 41702 065.1617 084.4460 5211284 045.5897 346.7903 05.00884248064684
0 SL-12 DEB
1 41703U 10007V   18305.41534673  .00000113  00000-0  56917-3 0  9999
2 41703  65.0386 102.6320 5579574  52.2402 346.3690  4.30078530 57773
0 SL-12 DEB
1 41704U 10007W   18305.54673465 -.00000210  00000-0 -40449-2 0  9999
2 41704  65.1477 120.0870 5459150  41.1964 349.2449  4.35391279 58786
0 SL-12 DEB
1 41704U 10007W   18304.85769112  .00000500  00000-0  73585-2 0  9994
2 41704  65.1493 120.3321 5459072  41.2265 349.2342  4.35393560 58750
0 NOAA 16 DEB
1 41705U 00055PK  18304.43775427 +.00000251 +00000-0 +15206-3 0  9997
2 41705 098.8400 020.7603 0014939 327.4056 032.6194 14.15192799131018
0 NOAA 16 DEB
1 41705U 00055PK  18305.42757025  .00000240  00000-0  14640-3 0  9990
2 41705  98.8399  21.7412 0014924 324.3374  35.6801 14.15193285131128
0 NOAA 16 DEB
1 41707U 00055PM  18305.46056463  .00000674  00000-0  33875-3 0  9996
2 41707  98.8376  26.5412 0032651 316.8095  43.0520 14.19614925131462
0 NOAA 16 DEB
1 41707U 00055PM  18304.47383043 +.00000680 +00000-0 +34166-3 0  9994
2 41707 098.8376 025.5566 0032603 319.8130 040.0635 14.19613530131321
0 NOAA 16 DEB
1 41710U 00055PQ  18305.21592240  .00000903  00000-0  42412-3 0  9993
2 41710  98.8698  33.2929 0040445 297.5439  62.1631 14.22222956132096
0 NOAA 16 DEB
1 41711U 00055PR  18304.00034577 +.00000718 +00000-0 +38244-3 0  9996
2 41711 098.8475 020.5413 0015930 333.1043 026.9304 14.16544925131300
0 NOAA 16 DEB
1 41712U 00055PS  18304.43437278 +.00000927 +00000-0 +51025-3 0  9993
2 41712 098.8857 018.0736 0053551 214.2322 145.5394 14.13398324130353
0 NOAA 16 DEB
1 41715U 00055PV  18304.39337369 +.00000665 +00000-0 +38042-3 0  9994
2 41715 098.7511 003.7421 0014230 063.9902 296.2734 14.12844660131540
0 BREEZE-KM DEB
1 41718U 15020F   18304.58707333 +.00000071 +00000-0 +19472-3 0  9995
2 41718 082.4884 250.7299 0230144 041.1279 320.6922 12.91190432160383
0 BREEZE-KM DEB
1 41719U 15020G   18304.22117173 +.00000038 +00000-0 +10548-3 0  9992
2 41719 082.4880 276.3686 0223582 107.3843 255.1838 12.75064452157393
0 BREEZE-KM DEB
1 41720U 15020H   18304.12010301 +.00000085 +00000-0 +24338-3 0  9992
2 41720 082.4877 251.4933 0231182 043.2817 318.6196 12.90879737159250
0 BREEZE-KM DEB
1 41720U 15020H   18305.12766719  .00000058  00000-0  15410-3 0  9995
2 41720  82.4879 250.8071 0231155  40.8871 320.9320 12.90879842159387
0 BREEZE-KM DEB
1 41721U 15020J   18304.64982439 +.00000043 +00000-0 +12600-3 0  9993
2 41721 082.4889 276.7270 0247081 106.6839 256.1535 12.74567574157314
0 BREEZE-KM DEB
1 41722U 15020K   18304.68071390 +.00000041 +00000-0 +13355-3 0  9999
2 41722 082.4867 283.5316 0180707 127.3332 234.4383 12.70390491138099
0 BREEZE-KM DEB
1 41723U 15020L   18304.56571530 +.00000244 +00000-0 +77127-3 0  9990
2 41723 082.4866 250.1054 0227903 040.1975 321.5741 12.91737220139560
0 TIANTONG-1 1
1 41725U 16048A   18304.94195098 -.00000334 +00000-0 +00000-0 0  9990
2 41725 003.8626 327.1252 0004388 328.8732 184.7010 01.00272666008340
0 TIANTONG-1 1
1 41725U 16048A   18305.62292014 -.00000336  00000-0  00000+0 0  9993
2 41725   3.8615 327.1315 0004403 328.9278  70.4604  1.00272315  8354
0 GAOFEN 3
1 41727U 16049A   18305.66549073 -.00000028  00000-0  47711-5 0  9994
2 41727  98.4151 311.4976 0001037  51.6558 308.4718 14.42213826117286
0 GAOFEN 3
1 41727U 16049A   18305.24922228 -.00000028  00000-0  47360-5 0  9995
2 41727  98.4150 311.0869 0001053  50.9645 309.1637 14.42213833117229
0 GAOFEN 3
1 41727U 16049A   18304.90233200 -.00000028 +00000-0 +46447-5 0  9997
2 41727 098.4150 310.7449 0001058 052.0283 308.1006 14.42213803117175
0 GAOFEN 3
1 41727U 16049A   18305.38797849 -.00000030  00000-0  40637-5 0  9992
2 41727  98.4151 311.2238 0001046  51.3909 308.7376 14.42213821117246
0 CZ-4C R/B
1 41728U 16049B   18305.20835911  .00000033  00000-0  14704-4 0  9994
2 41728  98.3312 339.8883 0104572  14.5739 345.8441 14.67845850119299
0 CZ-4C R/B
1 41728U 16049B   18304.73119132 +.00000033 +00000-0 +14678-4 0  9991
2 41728 098.3313 339.4028 0104605 016.0716 344.3765 14.67845766119228
0 JCSAT 16
1 41729U 16050A   18304.47306192 -.00000212 +00000-0 +00000-0 0  9999
2 41729 000.0104 236.8170 0001854 001.8549 121.3099 01.00270686008139
0 JCSAT 16
1 41729U 16050A   18304.47306223 -.00000212  00000-0  00000+0 0  9993
2 41729   0.0106 236.6314 0001837   2.3547 120.9959  1.00270374  8149
0 QSS
1 41731U 16051A   18305.39464610  .00000327  00000-0  16093-4 0  9994
2 41731  97.3605 218.3983 0012194 306.9502 118.8874 15.24716909123034
0 QSS
1 41731U 16051A   18304.87325685 +.00000377 +00000-0 +18087-4 0  9994
2 41731 097.3605 217.8856 0012227 308.9036 136.8786 15.24716872122959
0 QSS
1 41731U 16051A   18305.21435310  .00000369  00000-0  17786-4 0  9996
2 41731  97.3605 218.2210 0012205 307.6226 209.2279 15.24717113123009
0 QSS
1 41731U 16051A   18305.85766208  .00000346  00000-0  16854-4 0  9999
2 41731  97.3603 218.8533 0012166 305.2817 140.4095 15.24717335123106
0 QSS
1 41731U 16051A   18305.72604580  .00000357  00000-0  17291-4 0  9997
2 41731  97.3604 218.7239 0012170 305.7593 137.9568 15.24717304123089
0 3CAT-2
1 41732U 16051B   18305.82853559  .00000950  00000-0  39307-4 0  9992
2 41732  97.3702 220.8330 0012495 304.2005  91.2814 15.26352671123177
0 3CAT-2
1 41732U 16051B   18305.70155098  .00001066  00000-0  43768-4 0  9997
2 41732  97.3702 220.7073 0012482 303.9104 114.2601 15.26353108123156
0 3CAT-2
1 41732U 16051B   18305.31861461  .00001048  00000-0  43073-4 0  9991
2 41732  97.3707 220.3297 0012492 305.0392 170.2985 15.26352097123094
0 3CAT-2
1 41732U 16051B   18305.25397299  .00001105  00000-0  45275-4 0  9997
2 41732  97.3707 220.2660 0012364 305.1228 175.2475 15.26352233123084
0 3CAT-2
1 41732U 16051B   18304.84622472 +.00001130 +00000-0 +46204-4 0  9996
2 41732 097.3708 219.8638 0012430 306.8721 094.4172 15.26351464123029
0 DODECAPOLE 2 DEB
1 41734U 65065U   18304.88572151 +.00001099 +00000-0 +79337-3 0  9995
2 41734 090.0298 012.5750 0041244 287.5761 072.0912 13.95744872145629
0 DODECAPOLE 2 DEB
1 41734U 65065U   18305.67432157  .00000839  00000-0  60405-3 0  9991
2 41734  90.0299  12.5776 0041430 284.9638  74.6954 13.95744581112613
0 WORLDVIEW 2 DEB
1 41735U 09055C   18304.91935047 +.00003127 +00000-0 +10049-2 0  9992
2 41735 098.5149 022.5457 0020040 103.8878 256.4541 14.39968050119939
0 WORLDVIEW 2 DEB
1 41735U 09055C   18305.40575280  .00003108  00000-0  99866-3 0  9990
2 41735  98.5150  23.0293 0019979 102.5161 257.8264 14.39971067120004
0 WORLDVIEW 2 DEB
1 41736U 09055D   18304.79104533  .00001220  00000-0  41129-3 0  9993
2 41736  98.5156  22.0413 0003952 176.0173 184.1046 14.38802100119904
0 WORLDVIEW 2 DEB
1 41736U 09055D   18304.86058775 +.00001212 +00000-0 +40855-3 0  9993
2 41736 098.5155 022.1103 0003953 175.8842 184.2379 14.38802211119915
0 WORLDVIEW 2 DEB
1 41737U 09055E   18304.91219650 +.00007563 +00000-0 +20657-2 0  9993
2 41737 098.5789 032.6490 0017972 255.5935 104.3263 14.47470212120323
